satname,norad_id,inclination_deg,eccentricity,mean_motion_rev_per_day,perigee_km,apogee_km,l1,l2
STARLINK-1234,45190,53.0408,0.0005646,15.72487321,347.9911034295801,355.59053792468785,1 45190U 20012N   26146.66820985  .00065295  00000+0  47994-3 0  9999,2 45190  53.0408 300.8392 0005646 192.8131 167.2744 15.72487321348110
STARLINK-1269,45197,53.158,0.0002925,15.33764935,462.5899404150123,466.5929365515249,1 45197U 20012V   26146.93575459  .00041532  00000+0  12585-2 0  9994,2 45197  53.1580  35.4909 0002925  89.4181 270.7156 15.33764935346905
STARLINK-1154,45198,53.0429,6.91e-05,15.6260826,379.6591450207052,380.59313698679125,1 45198U 20012W   26147.00002315  .00047872  00000+0  52855-3 0  9998,2 45198  53.0429 352.6898 0000691  46.5408 185.2459 15.62608260  5898
STARLINK-1199,45201,53.1601,0.0002386,15.33726707,463.07243880269016,466.337843072346,1 45201U 20012Z   26146.84138457  .00040762  00000+0  12370-2 0  9999,2 45201  53.1601  20.1967 0002386 146.3028 213.8126 15.33726707347130
STARLINK-1209,45206,53.0396,0.0008537,15.64439967,369.0848617248939,380.61491153512543,1 45206U 20012AE  26146.87241394  .00096944  00000+0  98303-3 0  9996,2 45206  53.0396 313.7014 0008537 186.2517 173.8392 15.64439967347109
STARLINK-1231,45212,53.041,0.0003656,15.26932779,482.4786346480769,487.49695149677245,1 45212U 20012AL  26146.83607850  .00034003  00000+0  12758-2 0  9999,2 45212  53.0410  15.0711 0003656  61.7854 298.3512 15.26932779347145
STARLINK-1271,45217,53.1602,0.0001928,15.33939923,462.75185007225537,465.39020548776807,1 45217U 20012AR  26146.84039564  .00050043  00000+0  15041-2 0  9996,2 45217  53.1602  20.3384 0001928 150.1828 209.9285 15.33939923347133
STARLINK-1191,45222,53.1557,0.0003817,15.37716093,450.2574361510078,455.4722229476856,1 45222U 20012AW  26146.85117672  .00052149  00000+0  13881-2 0  9999,2 45222  53.1557 353.6281 0003817 145.5378 214.5874 15.37716093347516
STARLINK-1212,45223,53.0409,0.0003191,15.65709687,369.0447680107727,373.352193914724,1 45223U 20012AX  26146.96403421  .00055172  00000+0  53773-3 0  9996,2 45223  53.0409 328.9699 0003191 110.3370 249.7988 15.65709687347852
STARLINK-1215,45225,53.1596,0.0001846,15.33947973,462.78402244367953,465.3101568095699,1 45225U 20012AZ  26146.84031308  .00023321  00000+0  70924-3 0  9994,2 45225  53.1596 354.6156 0001846 165.2796 194.8260 15.33947973347458
STARLINK-1221,45227,53.065,0.0001711,15.44384773,432.02097756688,434.35181243264833,1 45227U 20012BB  26146.68957289  .00015025  00000+0  32866-3 0  9998,2 45227  53.0650 259.2492 0001711 252.4733 107.6086 15.44384773348751
STARLINK-1222,45228,53.0538,9.94e-05,15.54171353,403.88827378947826,405.23667444493276,1 45228U 20012BC  26146.73772125  .00027548  00000+0  42179-3 0  9990,2 45228  53.0538 327.2597 0000994  34.3010 325.8063 15.54171353347742
STARLINK-1226,45229,53.1579,0.0002608,15.4248278,437.00662855367955,440.562334798522,1 45229U 20012BD  26146.87228712  .00055109  00000+0  12531-2 0  9996,2 45229  53.1579 351.2544 0002608 171.4085 188.6966 15.42482780347447
STARLINK-1227,45230,53.156,0.0003101,15.42596158,436.3366329622968,440.5642805029629,1 45230U 20012BE  26146.88300814  .00054302  00000+0  12303-2 0  9994,2 45230  53.1560 351.3232 0003101 164.4395 195.6707 15.42596158347568
STARLINK-1246,45235,53.1577,0.0015023,15.32343516,458.5361918014105,479.10856595118275,1 45235U 20012BK  26146.94264511 -.01318781  00000+0 -45329-1 0  9999,2 45235  53.1577  35.0888 0015023 122.9949 237.2499 15.32343516346965
STARLINK-1270,45237,53.0422,0.0002361,15.59816914,386.5889720142013,389.7840299713689,1 45237U 20012BM  26146.93845166  .00097349  00000+0  11827-2 0  9999,2 45237  53.0422 330.0221 0002361 157.0958 203.0160 15.59816914347833
STARLINK-1279,45360,53.0363,0.0008607,15.72676034,345.46045337075157,357.04442435080637,1 45360U 20019A   26146.96403980  .00078605  00000+0  57068-3 0  9992,2 45360  53.0363  74.1582 0008607  72.2530 287.9426 15.72676034342937
STARLINK-1301,45361,53.0368,0.0006035,15.74976132,340.6418698464695,348.75633302089955,1 45361U 20019B   26146.95936682  .00084019  00000+0  55254-3 0  9993,2 45361  53.0368  77.0183 0006035  91.8058 268.3652 15.74976132342902
STARLINK-1262,45366,53.1544,0.0004009,15.32753258,464.8576291927584,470.34654279190727,1 45366U 20019G   26146.44913156  .00034041  00000+0  10678-2 0  9993,2 45366  53.1544 163.7624 0004009  29.8108 330.3122 15.32753258341663
STARLINK-1273,45367,53.0436,0.0006243,15.5523143,397.24745947054,405.7124892247093,1 45367U 20019H   26146.36143166  .00072769  00000+0  10537-2 0  9994,2 45367  53.0436 142.0921 0006243  16.0107 344.1100 15.55231430341940
STARLINK-1277,45369,53.0423,0.0006612,15.61662642,378.3836742452095,387.32440879851765,1 45369U 20019K   26146.24023715  .00087108  00000+0  98709-3 0  9991,2 45369  53.0423 137.3247 0006612   5.9089 354.2001 15.61662642342002
STARLINK-1281,45370,53.156,0.0004976,15.33650563,461.52652098020826,468.33674288270777,1 45370U 20019L   26146.33791013  .00034198  00000+0  10428-2 0  9998,2 45370  53.1560 163.9877 0004976  28.3884 331.7389 15.33650563341651
STARLINK-1300,45374,53.1569,0.0004686,15.34065735,460.4908432477341,466.90301000376803,1 45374U 20019Q   26146.41880293  .00035572  00000+0  10700-2 0  9990,2 45374  53.1569 163.5533 0004686  42.4847 317.6518 15.34065735341663
STARLINK-1302,45375,53.0454,0.0005519,15.65768989,367.3031992794504,374.7529276765172,1 45375U 20019R   26146.20052992  .00050197  00000+0  48865-3 0  9999,2 45375  53.0454 133.9195 0005519  30.8653 329.2685 15.65768989342045
STARLINK-1304,45376,53.0423,0.000617,15.60985236,380.63716406637013,388.98264054381434,1 45376U 20019S   26146.35604495  .00083896  00000+0  97656-3 0  9991,2 45376  53.0423 134.0458 0006170  32.5902 327.5490 15.60985236342053
STARLINK-1305,45377,53.0375,0.0001681,15.69669647,358.7095734251361,360.9748820415007,1 45377U 20019T   26146.18782118  .00066425  00000+0  54959-3 0  9990,2 45377  53.0375 114.2154 0001681 137.8920 222.2226 15.69669647342326
STARLINK-1319,45379,53.0379,0.0004837,15.75050521,341.23568844523834,347.7391553109628,1 45379U 20019V   26146.89902692  .00082838  00000+0  54335-3 0  9995,2 45379  53.0379 102.8969 0004837  54.1954 305.9514 15.75050521342548
STARLINK-1266,45383,53.0442,0.0001956,15.6471247,372.7450872739155,375.3865490163744,1 45383U 20019Z   26147.00002315 -.00428879  00000+0 -45610-2 0  9993,2 45383  53.0442 116.1374 0001956  82.0475  66.2206 15.64712470  5940
STARLINK-1267,45384,53.0445,0.0007712,15.6351457,372.3042581369873,382.72417457309257,1 45384U 20019AA  26146.87325203  .00050251  00000+0  53443-3 0  9999,2 45384  53.0445 107.9369 0007712  64.5451 295.6360 15.63514570342461
STARLINK-1272,45386,53.0399,0.000822,15.68121787,358.7331805363956,369.817706593617,1 45386U 20019AC  26146.92736568  .00061361  00000+0  54087-3 0  9996,2 45386  53.0399  86.8313 0008220  57.2214 302.9593 15.68121787342768
STARLINK-1274,45387,53.0208,0.0008854,15.59139318,384.15413282599366,396.1394097281718,1 45387U 20019AD  26146.05743878  .00090357  00000+0  11261-2 0  9996,2 45387  53.0208  89.5791 0008854  79.7205 280.4805 15.59139318342642
STARLINK-1280,45388,53.0373,0.0005576,15.75696896,338.90130365572895,346.3963239953073,1 45388U 20019AE  26146.28066311  .00091404  00000+0  58175-3 0  9992,2 45388  53.0373  98.4138 0005576  64.4235 295.7360 15.75696896342532
STARLINK-1283,45389,53.0397,0.0004287,15.69264232,358.1136005806993,363.8917389335493,1 45389U 20019AF  26146.12736072  .00067259  00000+0  56557-3 0  9997,2 45389  53.0397  89.9874 0004287  78.1296 282.0201 15.69264232342652
STARLINK-1284,45390,53.0404,0.0005104,15.68310854,360.2924963106034,367.17459776502074,1 45390U 20019AG  26146.90011289  .00058894  00000+0  51603-3 0  9993,2 45390  53.0404 109.9493 0005104  12.8998 347.2147 15.68310854342436
STARLINK-1297,45395,53.0408,0.0006872,15.66711083,363.6860222393534,372.9583557487076,1 45395U 20019AM  26146.90236053  .00056272  00000+0  52624-3 0  9998,2 45395  53.0408 108.8277 0006872  20.7818 339.3475 15.66711083341639
STARLINK-1307,45397,53.0521,0.0002704,15.55603357,398.56639572667245,402.23222816417274,1 45397U 20019AP  26146.93302720  .00028279  00000+0  41070-3 0  9997,2 45397  53.0521 113.5748 0002704  60.1718 299.9561 15.55603357342214
STARLINK-1255,45399,53.0343,0.0005882,15.64404054,370.9810678249223,378.92540317796556,1 45399U 20019AR  26146.97727049  .00084485  00000+0  86071-3 0  9999,2 45399  53.0343  82.0295 0005882  76.2437 283.9232 15.64404054342649
STARLINK-1260,45404,53.1561,0.0005918,15.36380205,452.77904613516876,460.86890594641045,1 45404U 20019AW  26146.92414963  .00044221  00000+0  12314-2 0  9991,2 45404  53.1561 124.1998 0005918  43.2751 316.8717 15.36380205341979
STARLINK-1263,45405,53.1575,0.0004601,15.33735038,461.5319811745494,467.82874171054846,1 45405U 20019AX  26146.93839417  .00026929  00000+0  82219-3 0  9995,2 45405  53.1575 125.1594 0004601  57.0302 303.1142 15.33735038341966
STARLINK-1265,45406,53.1559,0.0005609,15.36707709,452.0196428641193,459.6860126528991,1 45406U 20019AY  26146.33424562  .00046169  00000+0  12715-2 0  9992,2 45406  53.1559 126.9898 0005609  32.1138 328.0207 15.36707709341881
STARLINK-1278,45408,53.0393,0.0007304,15.67555649,360.9728941373969,370.82458154323285,1 45408U 20019BA  26146.17076532  .00065142  00000+0  58721-3 0  9996,2 45408  53.0393 111.4489 0007304  40.5621 319.5938 15.67555649342073
STARLINK-1296,45412,53.1548,0.0006326,15.3694599,450.823734259925,459.4692045053889,1 45412U 20019BE  26146.96086521  .00030732  00000+0  84502-3 0  9990,2 45412  53.1548 123.7582 0006326  33.7900 326.3506 15.36945990341982
STARLINK-1309,45414,53.0602,0.0006832,15.66713096,363.7072332059879,372.9255871456535,1 45414U 20019BG  26146.18367453  .00054727  00000+0  51201-3 0  9992,2 45414  53.0602 105.2116 0006832  17.2198 342.9048 15.66713096342147
